EUTELSAT 70B            
1 39020U 12069A   17345.58044665 -.00000050  00000-0  00000+0 0  9995
2 39020   0.0594   7.6715 0003242 251.6569 100.6402  1.00271120 18438
